NUSAT-1 (FRESCO)        
1 41557U 16033B   21349.55546478  .00002340  00000+0  81395-4 0  9996
2 41557  97.3925  82.6058 0011262 318.0125 100.2029 15.30675400309221
BEESAT-4                
1 41619U 16040W   21349.10334412  .00002681  00000+0  10429-3 0  9994
2 41619  97.2469  40.0197 0011671  57.8624 302.3746 15.26808335292569
CAS-2T & KS-1Q          
1 41847U 16066G   21349.42603377  .00000121  00000+0  27859-4 0  9992
2 41847  98.5789  49.0886 0365613  40.1643 322.5962 14.38300129267891
NAYIF-1 (EO-88)         
1 42017U 17008BX  21349.14373450  .00003187  00000+0  11350-3 0  9997
2 42017  97.2967  53.4504 0005866 170.8863 189.2485 15.29646810268864
ZHUHAI-1 02 (CAS-4B)    
1 42759U 17034B   21349.51003471  .00000736  00000+0  56995-4 0  9995
2 42759  43.0182 265.4376 0008326 224.6978 304.2524 15.10613348248520
ZHUHAI-1 01 (CAS-4A)    
1 42761U 17034D   21349.28748905  .00000561  00000+0  46455-4 0  9996
2 42761  43.0178 265.5837 0008726 224.5508 278.8307 15.10698173248493
MAX VALIER SAT          
1 42778U 17036P   21349.52565435  .00001934  00000+0  81585-4 0  9996
2 42778  97.2328  32.0463 0009959 254.7856 105.2281 15.24431750248867
RADFXSAT (FOX-1B)       
1 43017U 17073E   21349.35300378  .00000975  00000+0  78871-4 0  9996
2 43017  97.6924 246.0381 0254768  69.9746 292.8700 14.80008018219876
FOX-1D (AO-92)          
1 43137U 18004AC  21349.48309969  .00002193  00000+0  87483-4 0  9996
2 43137  97.3911  61.5921 0007014 297.5806  62.4720 15.26230772218268
DIWATA-2B               
1 43678U 18084H   21349.62195454 -.00000129  00000+0 -70350-5 0  9997
2 43678  97.9464 116.1050 0010113 164.8450 195.3044 14.91848140170449
ES'HAIL 2               
1 43700U 18090A   21349.29320542  .00000160  00000+0  00000+0 0  9993
2 43700   0.0146 318.5347 0002222 325.2721 291.7303  1.00272862 11182
FOX-1CLIFF (AO-95)      
1 43770U 18099N   21349.37857594  .00000280  00000+0  30320-4 0  9996
2 43770  97.6464  55.3987 0014776 167.5378 192.6211 14.95587471165496
ITASAT 1                
1 43786U 18099AE  21349.46482657  .00000806  00000+0  77115-4 0  9994
2 43786  97.6486  56.2860 0015720 160.2075 199.9760 14.95846075165544
JY1SAT (JO-97)          
1 43803U 18099AX  21349.46282061  .00000891  00000+0  84034-4 0  9993
2 43803  97.6447  56.0214 0015678 159.9175 200.2666 14.96148969165550
UWE-4                   
1 43880U 18111E   21349.25734934  .00000163  00000+0  19128-4 0  9995
2 43880  97.6779 253.8040 0011168 214.2982 145.7520 14.97173742162139
NEXUS (FO-99)           
1 43937U 19003F   21349.33957961  .00002717  00000+0  10468-3 0  9999
2 43937  97.1558  25.1698 0024265  90.5472 269.8548 15.26898221161857
PSAT2 (NO-104)          
1 44354U 19036R   21349.35724933  .00014633  00000+0  17367-3 0  9997
2 44354  28.5262 354.7259 0296187  87.6099 275.8370 15.21359957136474
BRICSAT2 (NO-103)       
1 44355U 19036S   21349.47869345  .00043059 -60663-5  33515-3 0  9993
2 44355  28.5253 270.8632 0197859 224.2615 134.2008 15.48008846137325
JAISAT-1                
1 44419U 19038F   21349.45230387  .00001922  00000+0  10731-3 0  9992
2 44419  97.6133 313.8165 0022110  50.6654 309.6533 15.14574385135182
DUCHIFAT-3              
1 44854U 19089C   21349.56385127  .00000732  00000+0  64300-4 0  9996
2 44854  36.9637 109.3326 0006814 172.9240 187.1600 14.99853260110304
CAS-6 (TO-108)          
1 44881U 19093C   21349.47730361  .00000086  00000+0  17657-4 0  9990
2 44881  97.9114  66.2054 0016431  66.8334 293.4614 14.81521856107532
RS-44 & BREEZE-KM R/B   
1 44909U 19096E   21349.46314366  .00000037  00000+0  10261-3 0  9995
2 44909  82.5212 352.5374 0217989  30.1885 331.1570 12.79711527 91976
ORBITAL FACTORY 2 (OF-2)
1 45113U 19071C   21349.39227742  .00004611  00000+0  13197-3 0  9992
2 45113  51.6409 239.0013 0010616 222.2671 137.7495 15.37916335104997
HUSKYSAT-1 (HO-107)     
1 45119U 19071J   21349.53898821  .00004497  00000+0  12958-3 0  9992
2 45119  51.6406 237.7189 0010200 219.1439 140.8808 15.37772017105019
BY70-2                  
1 45857U 20042B   21349.48769529  .00001381  00000+0  19989-3 0  9997
2 45857  97.9725  63.3077 0010141 357.4817   2.6341 14.77681156 78274
SALSAT                  
1 46495U 20068K   21349.61051264  .00000043  00000+0  76906-5 0  9997
2 46495  97.7108 286.1982 0016776 172.4841 187.6641 15.03709071 66550
BY70-3                  
1 46839U 20079N   21349.60564547  .00004024  00000+0  11874-3 0  9997
2 46839  97.2241  59.8851 0005216 278.1548 187.9402 15.35545496 61984
RADFXSAT-2 (AO-109)     
1 47311U 21002C   21349.53713987  .00001458  00000+0  73369-4 0  9992
2 47311  60.6858 332.9164 0033585 139.8909 220.4667 15.22549188 50436
UVSQ-SAT                
1 47438U 21006AB  21349.41379228  .00001303  00000+0  75802-4 0  9992
2 47438  97.4658  47.2259 0012383 186.1207 173.9876 15.13733395 49428
DIY-1 (ARDUIQUBE)       
1 47963U 21022AH  21349.46632207  .00003766  00000+0  24383-3 0  9999
2 47963  97.5461 248.5724 0020577  48.0453 312.2525 15.08583256 39173
